{
  "type": "FeatureCollection",
  "features": [
    {
      "type": "Feature",
      "geometry": {
        "type": "Point",
        "coordinates": [
          41.61635487352152,
          17.933347989583552,
          472579.99999999994
        ]
      },
      "properties": {
        "name": "SATELLITE-59524",
        "satellite_id": "59524",
        "object_name": "SAT-59524",
        "status": "active",
        "epoch": "2025-06-01T22:00:01.999584Z",
        "mean_motion": 15.33478756,
        "inclination": 42.9988,
        "eccentricity": 0.0005386,
        "semi_major_axis": 6843.58,
        "altitude_km": 472.5799999999999,
        "apogee": 6847.2660000000005,
        "perigee": 6839.894,
        "period": 93.904,
        "raan": 102.5687,
        "arg_of_perigee": 181.2311,
        "mean_anomaly": 331.9294,
        "classification": "U",
        "source": "18th SPCS",
        "data_mode": "REAL"
      }
    },
    {
      "type": "Feature",
      "geometry": {
        "type": "Point",
        "coordinates": [
          58.37803124193422,
          37.4486207641427,
          490333.9999999998
        ]
      },
      "properties": {
        "name": "SATELLITE-59571",
        "satellite_id": "59571",
        "object_name": "SAT-59571",
        "status": "active",
        "epoch": "2025-06-01T22:00:01.999584Z",
        "mean_motion": 15.27530748,
        "inclination": 42.999,
        "eccentricity": 0.0001197,
        "semi_major_axis": 6861.334,
        "altitude_km": 490.33399999999983,
        "apogee": 6862.155000000001,
        "perigee": 6860.512000000001,
        "period": 94.27,
        "raan": 154.2433,
        "arg_of_perigee": 257.3811,
        "mean_anomaly": 219.5455,
        "classification": "U",
        "source": "18th SPCS",
        "data_mode": "REAL"
      }
    },
    {
      "type": "Feature",
      "geometry": {
        "type": "Point",
        "coordinates": [
          -18.73074914609078,
          47.3841527095523,
          317793.9999999999
        ]
      },
      "properties": {
        "name": "SATELLITE-59753",
        "satellite_id": "59753",
        "object_name": "SAT-59753",
        "status": "active",
        "epoch": "2025-06-01T22:00:01.999584Z",
        "mean_motion": 15.87015112,
        "inclination": 53.1416,
        "eccentricity": 0.0008487,
        "semi_major_axis": 6688.794,
        "altitude_km": 317.79399999999987,
        "apogee": 6694.47,
        "perigee": 6683.117,
        "period": 90.736,
        "raan": 147.3433,
        "arg_of_perigee": 44.2377,
        "mean_anomaly": 22.6517,
        "classification": "U",
        "source": "18th SPCS",
        "data_mode": "REAL"
      }
    },
    {
      "type": "Feature",
      "geometry": {
        "type": "Point",
        "coordinates": [
          18.450651904888595,
          0.7764379740344269,
          489957.99999999965
        ]
      },
      "properties": {
        "name": "SATELLITE-59877",
        "satellite_id": "59877",
        "object_name": "SAT-59877",
        "status": "active",
        "epoch": "2025-06-01T22:00:01.999584Z",
        "mean_motion": 15.27656242,
        "inclination": 43.0007,
        "eccentricity": 0.0001032,
        "semi_major_axis": 6860.958,
        "altitude_km": 489.95799999999963,
        "apogee": 6861.666,
        "perigee": 6860.25,
        "period": 94.262,
        "raan": 59.9275,
        "arg_of_perigee": 269.7157,
        "mean_anomaly": 269.1458,
        "classification": "U",
        "source": "18th SPCS",
        "data_mode": "REAL"
      }
    },
    {
      "type": "Feature",
      "geometry": {
        "type": "Point",
        "coordinates": [
          123.52724129964902,
          45.960272654748906,
          373777.00000000006
        ]
      },
      "properties": {
        "name": "SATELLITE-60033",
        "satellite_id": "60033",
        "object_name": "SAT-60033",
        "status": "active",
        "epoch": "2025-06-01T22:00:01.999584Z",
        "mean_motion": 15.67297226,
        "inclination": 53.1587,
        "eccentricity": 7.94e-05,
        "semi_major_axis": 6744.777,
        "altitude_km": 373.77700000000004,
        "apogee": 6745.313,
        "perigee": 6744.242,
        "period": 91.878,
        "raan": 293.3877,
        "arg_of_perigee": 56.9899,
        "mean_anomaly": 6.9373,
        "classification": "U",
        "source": "18th SPCS",
        "data_mode": "REAL"
      }
    },
    {
      "type": "Feature",
      "geometry": {
        "type": "Point",
        "coordinates": [
          -11.02540960148718,
          48.64371124805414,
          323377.0000000004
        ]
      },
      "properties": {
        "name": "SATELLITE-60311",
        "satellite_id": "60311",
        "object_name": "SAT-60311",
        "status": "active",
        "epoch": "2025-06-01T22:00:01.999584Z",
        "mean_motion": 15.85029984,
        "inclination": 53.1457,
        "eccentricity": 0.000587,
        "semi_major_axis": 6694.377,
        "altitude_km": 323.3770000000004,
        "apogee": 6698.307000000001,
        "perigee": 6690.448,
        "period": 90.85,
        "raan": 87.9977,
        "arg_of_perigee": 99.4412,
        "mean_anomaly": 10.8276,
        "classification": "U",
        "source": "18th SPCS",
        "data_mode": "REAL"
      }
    },
    {
      "type": "Feature",
      "geometry": {
        "type": "Point",
        "coordinates": [
          148.68516459012702,
          -19.645910609144646,
          482346.99999999977
        ]
      },
      "properties": {
        "name": "SATELLITE-60365",
        "satellite_id": "60365",
        "object_name": "SAT-60365",
        "status": "active",
        "epoch": "2025-06-01T22:00:01.999584Z",
        "mean_motion": 15.30201651,
        "inclination": 53.1571,
        "eccentricity": 0.0001101,
        "semi_major_axis": 6853.347,
        "altitude_km": 482.34699999999975,
        "apogee": 6854.102,
        "perigee": 6852.593,
        "period": 94.105,
        "raan": 173.8151,
        "arg_of_perigee": 96.5757,
        "mean_anomaly": 108.2658,
        "classification": "U",
        "source": "18th SPCS",
        "data_mode": "REAL"
      }
    },
    {
      "type": "Feature",
      "geometry": {
        "type": "Point",
        "coordinates": [
          59.530382599558116,
          -9.342421052675036,
          482424.0
        ]
      },
      "properties": {
        "name": "SATELLITE-61593",
        "satellite_id": "61593",
        "object_name": "SAT-61593",
        "status": "active",
        "epoch": "2025-06-01T22:00:01.999584Z",
        "mean_motion": 15.30175846,
        "inclination": 53.1594,
        "eccentricity": 0.0001115,
        "semi_major_axis": 6853.424,
        "altitude_km": 482.424,
        "apogee": 6854.188,
        "perigee": 6852.66,
        "period": 94.107,
        "raan": 287.2546,
        "arg_of_perigee": 88.7049,
        "mean_anomaly": 259.592,
        "classification": "U",
        "source": "18th SPCS",
        "data_mode": "REAL"
      }
    },
    {
      "type": "Feature",
      "geometry": {
        "type": "Point",
        "coordinates": [
          41.27573596959985,
          -4.18945402961343,
          1092730.9999999998
        ]
      },
      "properties": {
        "name": "SATELLITE-61595",
        "satellite_id": "61595",
        "object_name": "SAT-61595",
        "status": "active",
        "epoch": "2025-06-01T22:00:01.999584Z",
        "mean_motion": 13.46383515,
        "inclination": 87.7473,
        "eccentricity": 0.0004671,
        "semi_major_axis": 7463.731,
        "altitude_km": 1092.7309999999998,
        "apogee": 7467.217000000001,
        "perigee": 7460.245,
        "period": 106.953,
        "raan": 81.7548,
        "arg_of_perigee": 175.2873,
        "mean_anomaly": 8.9054,
        "classification": "U",
        "source": "18th SPCS",
        "data_mode": "REAL"
      }
    },
    {
      "type": "Feature",
      "geometry": {
        "type": "Point",
        "coordinates": [
          41.334518095780936,
          -6.777534591514763,
          1103909.9999999998
        ]
      },
      "properties": {
        "name": "SATELLITE-61596",
        "satellite_id": "61596",
        "object_name": "SAT-61596",
        "status": "active",
        "epoch": "2025-06-01T22:00:01.999584Z",
        "mean_motion": 13.43364413,
        "inclination": 87.769,
        "eccentricity": 0.0002623,
        "semi_major_axis": 7474.91,
        "altitude_km": 1103.9099999999999,
        "apogee": 7476.87,
        "perigee": 7472.9490000000005,
        "period": 107.194,
        "raan": 81.7134,
        "arg_of_perigee": 169.8373,
        "mean_anomaly": 16.9454,
        "classification": "U",
        "source": "18th SPCS",
        "data_mode": "REAL"
      }
    }
  ],
  "metadata": {
    "original_count": 50000,
    "selected_count": 500,
    "selection_method": "most_recent_500",
    "processed_at": "2025-09-15T13:39:14.453379+00:00"
  }
}
